[{"OBJECT_NAME":"STARLINK-3388","OBJECT_ID":"2022-005AD","EPOCH":"2026-03-09T20:54:22.398912","MEAN_MOTION":15.08832205,"ECCENTRICITY":0.00013149,"INCLINATION":53.2187,"RA_OF_ASC_NODE":298.3097,"ARG_OF_PERICENTER":100.2983,"MEAN_ANOMALY":259.8157,"EPHEMERIS_TYPE":0,"CLASSIFICATION_TYPE":"U","NORAD_CAT_ID":51131,"ELEMENT_SET_NO":999,"REV_AT_EPOCH":22875,"BSTAR":2.1696055e-5,"MEAN_MOTION_DOT":5.7e-7,"MEAN_MOTION_DDOT":0},{"OBJECT_NAME":"PACE","OBJECT_ID":"2014-033N","EPOCH":"2026-03-09T22:47:44.809152","MEAN_MOTION":15.09745465,"ECCENTRICITY":0.00061206,"INCLINATION":98.125,"RA_OF_ASC_NODE":67.7953,"ARG_OF_PERICENTER":179.3374,"MEAN_ANOMALY":180.7863,"EPHEMERIS_TYPE":0,"CLASSIFICATION_TYPE":"U","NORAD_CAT_ID":40022,"ELEMENT_SET_NO":999,"REV_AT_EPOCH":63805,"BSTAR":0.00051174262,"MEAN_MOTION_DOT":8.193e-5,"MEAN_MOTION_DDOT":0}]
